NORAD_CAT_ID,OBJECT_NAME,OBJECT_TYPE,EPOCH,MEAN_MOTION,ECCENTRICITY,INCLINATION,RA_OF_ASC_NODE,ARG_OF_PERICENTER,MEAN_ANOMALY,BSTAR,MEAN_MOTION_DOT,MEAN_MOTION_DDOT,TLE_LINE0,TLE_LINE1,TLE_LINE2,SEMIMAJOR_AXIS,PERIOD,APOGEE,PERIGEE,DECAYED
56792.0,STARLINK-6046,PAYLOAD,2023-06-22 20:36:51,15.6993677,0.0003742,70.0013,349.8078,271.349,88.7277,0.00010639,0.00012606,0.0,0 STARLINK-6046,1 56792U 23078AB  23173.85893506  .00012606  00000-0  10639-3 0  9996,2 56792  70.0013 349.8078 0003742 271.3490  88.7277 15.69936770  3851,6737.215,91.723,361.601,356.559,0.0
56792.0,STARLINK-6046,PAYLOAD,2023-06-23 14:57:53,15.69931153,0.0003484,70.0013,347.6583,258.1948,101.8857,6.2643e-05,7.328e-05,0.0,0 STARLINK-6046,1 56792U 23078AB  23174.62353692  .00007328  00000-0  62643-4 0  9997,2 56792  70.0013 347.6583 0003484 258.1948 101.8857 15.69931153  3976,6737.231,91.724,361.443,356.749,0.0
56792.0,STARLINK-6046,PAYLOAD,2023-06-24 04:43:39,15.69922619,0.0003977,70.0012,346.0458,270.4746,89.5994,3.4291e-05,3.912e-05,0.0,0 STARLINK-6046,1 56792U 23078AB  23175.19698966  .00003912  00000-0  34291-4 0  9999,2 56792  70.0012 346.0458 0003977 270.4746  89.5994 15.69922619  4061,6737.255,91.724,361.8,356.441,0.0
56792.0,STARLINK-6046,PAYLOAD,2023-06-24 13:54:10,15.69942432,0.0003766,70.0004,344.9713,271.7438,88.3326,0.0001413,0.00016825,0.0,0 STARLINK-6046,1 56792U 23078AB  23175.57928866  .00016825  00000-0  14130-3 0  9992,2 56792  70.0004 344.9713 0003766 271.7438  88.3326 15.69942432  4129,6737.199,91.723,361.601,356.526,0.0
56792.0,STARLINK-6046,PAYLOAD,2023-06-24 21:32:56,15.69936802,0.0003738,69.9998,344.0753,271.6569,88.4198,9.432e-05,0.0001115,0.0,0 STARLINK-6046,1 56792U 23078AB  23175.89787220  .00011150  00000-0  94320-4 0  9990,2 56792  69.9998 344.0753 0003738 271.6569  88.4198 15.69936802  4173,6737.215,91.723,361.598,356.561,0.0
56792.0,STARLINK-6046,PAYLOAD,2023-06-25 17:25:42,15.69934236,0.0003669,69.9999,341.7465,272.0375,88.04,6.7229e-05,7.882e-05,0.0,0 STARLINK-6046,1 56792U 23078AB  23176.72618924  .00007882  00000-0  67229-4 0  9992,2 56792  69.9999 341.7465 0003669 272.0375  88.0400 15.69934236  4307,6737.222,91.724,361.559,356.615,0.0
56792.0,STARLINK-6046,PAYLOAD,2023-06-26 10:14:59,15.69926522,0.0003544,69.9993,339.7755,273.3806,86.6985,2.16e-05,2.385e-05,0.0,0 STARLINK-6046,1 56792U 23078AB  23177.42707571  .00002385  00000-0  21600-4 0  9993,2 56792  69.9993 339.7755 0003544 273.3806  86.6985 15.69926522  4418,6737.244,91.724,361.497,356.722,0.0
56792.0,STARLINK-6046,PAYLOAD,2023-06-27 18:21:46,15.69940772,0.0003711,69.9984,336.0132,271.2194,88.8577,3.8428e-05,4.414e-05,0.0,0 STARLINK-6046,1 56792U 23078AB  23178.76512056  .00004414  00000-0  38428-4 0  9994,2 56792  69.9984 336.0132 0003711 271.2194  88.8577 15.69940772  4627,6737.203,91.723,361.569,356.568,0.0
56792.0,STARLINK-6046,PAYLOAD,2023-06-28 09:39:18,15.69921456,0.0003633,69.9983,334.2226,269.0581,91.0199,9.1409e-06,8.86e-06,0.0,0 STARLINK-6046,1 56792U 23078AB  23179.40229675  .00000886  00000-0  91409-5 0  9996,2 56792  69.9983 334.2226 0003633 269.0581  91.0199 15.69921456  4723,6737.259,91.724,361.571,356.676,0.0
56792.0,STARLINK-6046,PAYLOAD,2023-06-29 10:07:20,15.69924795,0.0003681,69.9991,331.3551,272.7515,87.3259,-1.6832e-06,-4.15e-06,0.0,0 STARLINK-6046,1 56792U 23078AB  23180.42176303 -.00000415  00000-0 -16832-5 0  9996,2 56792  69.9991 331.3551 0003681 272.7515  87.3259 15.69924795  4883,6737.249,91.724,361.594,356.634,0.0
56792.0,STARLINK-6046,PAYLOAD,2023-06-30 13:38:52,15.69914706,0.0004322,69.9966,328.127,272.7685,87.3016,-2.6813e-05,-3.436e-05,0.0,0 STARLINK-6046,1 56792U 23078AB  23181.56866233 -.00003436  00000-0 -26813-4 0  9995,2 56792  69.9966 328.1270 0004322 272.7685  87.3016 15.69914706  5061,6737.278,91.725,362.055,356.231,0.0
56792.0,STARLINK-6046,PAYLOAD,2023-07-01 04:56:23,15.69921864,0.0003755,69.9994,326.3392,273.9952,86.0815,5.5434e-06,4.54e-06,0.0,0 STARLINK-6046,1 56792U 23078AB  23182.20583104  .00000454  00000-0  55434-5 0  9997,2 56792  69.9994 326.3392 0003755 273.9952  86.0815 15.69921864  5163,6737.258,91.724,361.652,356.593,0.0
56792.0,STARLINK-6046,PAYLOAD,2023-07-01 18:42:09,15.69935027,0.0003592,69.9995,324.7265,265.0373,95.0413,8.3977e-05,9.902e-05,0.0,0 STARLINK-6046,1 56792U 23078AB  23182.77927851  .00009902  00000-0  83977-4 0  9999,2 56792  69.9995 324.7265 0003592 265.0373  95.0413 15.69935027  5253,6737.22,91.724,361.505,356.665,0.0
56792.0,STARLINK-6046,PAYLOAD,2023-07-02 09:59:41,15.69931246,0.0003245,70.0004,322.9339,270.3714,89.711,5.3135e-05,6.183e-05,0.0,0 STARLINK-6046,1 56792U 23078AB  23183.41644906  .00006183  00000-0  53135-4 0  9999,2 56792  70.0004 322.9339 0003245 270.3714  89.7110 15.69931246  5356,6737.231,91.724,361.282,356.909,0.0
56792.0,STARLINK-6046,PAYLOAD,2023-07-03 02:48:57,15.69928662,0.0003595,69.9983,320.9642,275.9627,84.1159,2.0637e-05,2.27e-05,0.0,0 STARLINK-6046,1 56792U 23078AB  23184.11733273  .00002270  00000-0  20637-4 0  9997,2 56792  69.9983 320.9642 0003595 275.9627  84.1159 15.69928662  5468,6737.238,91.724,361.525,356.681,0.0
56792.0,STARLINK-6046,PAYLOAD,2023-07-03 18:06:29,15.69916531,0.0003882,69.9983,319.1725,263.3962,96.6791,-1.9972e-05,-2.613e-05,0.0,0 STARLINK-6046,1 56792U 23078AB  23184.75450401 -.00002613  00000-0 -19972-4 0  9999,2 56792  69.9983 319.1725 0003882 263.3962  96.6791 15.69916531  5565,6737.273,91.725,361.753,356.522,0.0
56792.0,STARLINK-6046,PAYLOAD,2023-07-04 09:24:00,15.6992987,0.0003446,69.9993,317.3817,272.0271,88.053,2.2172e-05,2.455e-05,0.0,0 STARLINK-6046,1 56792U 23078AB  23185.39166700  .00002455  00000-0  22172-4 0  9994,2 56792  69.9993 317.3817 0003446 272.0271  88.0530 15.69929870  5661,6737.235,91.724,361.421,356.778,0.0
56792.0,STARLINK-6046,PAYLOAD,2023-07-05 11:23:47,15.6991974,0.0003541,69.9983,314.3331,268.5834,91.4956,7.4311e-06,6.81e-06,0.0,0 STARLINK-6046,1 56792U 23078AB  23186.47485756  .00000681  00000-0  74311-5 0  9991,2 56792  69.9983 314.3331 0003541 268.5834  91.4956 15.69919740  5833,6737.264,91.724,361.514,356.743,0.0
56792.0,STARLINK-6046,PAYLOAD,2023-07-06 17:58:49,15.69936928,0.0003509,69.9987,310.7525,266.5468,93.5326,2.2843e-05,2.536e-05,0.0,0 STARLINK-6046,1 56792U 23078AB  23187.74918227  .00002536  00000-0  22843-4 0  9999,2 56792  69.9987 310.7525 0003509 266.5468  93.5326 15.69936928  6031,6737.214,91.723,361.444,356.715,0.0
56792.0,STARLINK-6046,PAYLOAD,2023-07-07 01:37:35,15.69921131,0.000356,69.9982,309.8555,271.9233,88.1555,1.4903e-05,1.579e-05,0.0,0 STARLINK-6046,1 56792U 23078AB  23188.06777511  .00001579  00000-0  14903-4 0  9998,2 56792  69.9982 309.8555 0003560 271.9233  88.1555 15.69921131  6084,6737.26,91.724,361.523,356.726,0.0
56792.0,STARLINK-6046,PAYLOAD,2023-07-07 10:48:06,15.69928871,0.0003777,69.9978,308.7807,273.4943,86.5821,7.8649e-06,7.33e-06,0.0,0 STARLINK-6046,1 56792U 23078AB  23188.45007201  .00000733  00000-0  78649-5 0  9992,2 56792  69.9978 308.7807 0003777 273.4943  86.5821 15.69928871  6145,6737.237,91.724,361.647,356.558,0.0
56792.0,STARLINK-6046,PAYLOAD,2023-07-08 17:23:08,15.69927547,0.000376,69.9987,305.197,270.7313,89.3452,2.476e-05,2.766e-05,0.0,0 STARLINK-6046,1 56792U 23078AB  23189.72440708  .00002766  00000-0  24760-4 0  9998,2 56792  69.9987 305.1970 0003760 270.7313  89.3452 15.69927547  6342,6737.241,91.724,361.639,356.573,0.0
56792.0,STARLINK-6046,PAYLOAD,2023-07-09 17:51:10,15.69920043,0.0003343,69.9984,302.3305,269.4729,90.6083,6.5421e-06,5.74e-06,0.0,0 STARLINK-6046,1 56792U 23078AB  23190.74387728  .00000574  00000-0  65421-5 0  9999,2 56792  69.9984 302.3305 0003343 269.4729  90.6083 15.69920043  6500,6737.263,91.724,361.38,356.875,0.0
56792.0,STARLINK-6046,PAYLOAD,2023-07-11 00:26:13,15.69924646,0.0003521,69.9983,298.7476,271.46,88.6192,5.9787e-06,5.06e-06,0.0,0 STARLINK-6046,1 56792U 23078AB  23192.01820932  .00000506  00000-0  59787-5 0  9993,2 56792  69.9983 298.7476 0003521 271.4600  88.6192 15.69924646  6708,6737.25,91.724,361.487,356.742,0.0
56792.0,STARLINK-6046,PAYLOAD,2023-07-11 17:15:30,15.69916582,0.0003396,69.998,296.7769,279.7358,80.3454,-1.0062e-05,-1.422e-05,0.0,0 STARLINK-6046,1 56792U 23078AB  23192.71909756 -.00001422  00000-0 -10062-4 0  9994,2 56792  69.9980 296.7769 0003396 279.7358  80.3454 15.69916582  6811,6737.273,91.725,361.426,356.85,0.0
56792.0,STARLINK-6046,PAYLOAD,2023-07-12 16:11:46,15.69934688,0.0003792,69.9976,294.0894,270.0902,89.9859,3.6363e-05,4.164e-05,0.0,0 STARLINK-6046,1 56792U 23078AB  23193.67484076  .00004164  00000-0  36363-4 0  9999,2 56792  69.9976 294.0894 0003792 270.0902  89.9859 15.69934688  6962,6737.221,91.724,361.641,356.531,0.0
56792.0,STARLINK-6046,PAYLOAD,2023-07-13 16:39:48,15.69924592,0.0002923,69.9992,291.2239,267.9653,92.1208,7.8054e-06,7.26e-06,0.0,0 STARLINK-6046,1 56792U 23078AB  23194.69431588  .00000726  00000-0  78054-5 0  9996,2 56792  69.9992 291.2239 0002923 267.9653  92.1208 15.69924592  7121,6737.25,91.724,361.084,357.145,0.0
56792.0,STARLINK-6046,PAYLOAD,2023-07-14 23:14:51,15.69918915,0.0002332,70.0001,287.6414,262.293,97.8001,1.22e-05,1.255e-05,0.0,0 STARLINK-6046,1 56792U 23078AB  23195.96865403  .00001255  00000-0  12200-4 0  9992,2 56792  70.0001 287.6414 0002332 262.2930  97.8001 15.69918915  7326,6737.266,91.724,360.702,357.56,0.0
56792.0,STARLINK-6046,PAYLOAD,2023-07-15 17:35:53,15.6990977,0.0002762,69.9964,285.492,261.4351,98.6531,-2.3301e-06,-4.92e-06,0.0,0 STARLINK-6046,1 56792U 23078AB  23196.73326313 -.00000492  00000-0 -23301-5 0  9999,2 56792  69.9964 285.4920 0002762 261.4351  98.6531 15.69909770  7443,6737.292,91.725,361.018,357.296,0.0
56792.0,STARLINK-6046,PAYLOAD,2023-07-15 23:42:53,15.69918142,0.0003344,69.9981,284.7728,262.0139,98.0677,-7.8827e-06,-1.16e-05,0.0,0 STARLINK-6046,1 56792U 23078AB  23196.98811929 -.00001160  00000-0 -78827-5 0  9994,2 56792  69.9981 284.7728 0003344 262.0139  98.0677 15.69918142  7480,6737.268,91.725,361.386,356.88,0.0
